{
  "type": "FeatureCollection",
  "features": [
    {
      "type": "Feature",
      "properties": {
        "norad_id": 28051,
        "name": "IRS-P6 (RESOURCESAT-1)",
        "group": "resource",
        "lat": -69.9079821841118,
        "lon": 60.396538638465984,
        "alt_km": 813.6158091944317,
        "timestamp": "2025-12-23T05:02:11.680041+00:00",
        "meta_object_name": "IRS-P6 (RESOURCESAT-1)",
        "meta_object_id": "2003-046A",
        "meta_epoch": "2025-12-22T23:04:46.341408",
        "meta_mean_motion": 14.36078735,
        "meta_eccentricity": 0.00647853,
        "meta_inclination": 98.2162,
        "meta_ra_of_asc_node": 36.8944,
        "meta_arg_of_pericenter": 150.1282,
        "meta_mean_anomaly": 295.3491,
        "meta_ephemeris_type": 0,
        "meta_classification_type": "U",
        "meta_norad_cat_id": 28051,
        "meta_element_set_no": 999,
        "meta_rev_at_epoch": 15523,
        "meta_bstar": 4.6427224e-05,
        "meta_mean_motion_dot": 9.8e-07,
        "meta_mean_motion_ddot": 0,
        "tle_line1": "1 28051U 03046A   25356.96164747  .00000098  00000+0  46427-4 0  9997",
        "tle_line2": "2 28051  98.2162  36.8944 0064785 150.1282 295.3491 14.36078735155232"
      },
      "geometry": {
        "type": "Point",
        "coordinates": [
          60.396538638465984,
          -69.9079821841118
        ]
      }
    },
    {
      "type": "Feature",
      "properties": {
        "norad_id": 28220,
        "name": "SHIYAN-1 (SY-1)",
        "group": "resource",
        "lat": 31.158819751645577,
        "lon": 54.55576921448942,
        "alt_km": 480.0988783266921,
        "timestamp": "2025-12-23T05:02:11.680052+00:00",
        "meta_object_name": "SHIYAN-1 (SY-1)",
        "meta_object_id": "2004-012A",
        "meta_epoch": "2025-12-21T21:28:24.522528",
        "meta_mean_motion": 15.28363795,
        "meta_eccentricity": 0.00051617,
        "meta_inclination": 97.8924,
        "meta_ra_of_asc_node": 57.9743,
        "meta_arg_of_pericenter": 287.3834,
        "meta_mean_anomaly": 72.684,
        "meta_ephemeris_type": 0,
        "meta_classification_type": "U",
        "meta_norad_cat_id": 28220,
        "meta_element_set_no": 999,
        "meta_rev_at_epoch": 18396,
        "meta_bstar": 0.00048309009,
        "meta_mean_motion_dot": 0.00013276,
        "meta_mean_motion_ddot": 0,
        "tle_line1": "1 28220U 04012A   25355.89472827  .00013276  00000+0  48309-3 0  9993",
        "tle_line2": "2 28220  97.8924  57.9743 0005161 287.3834  72.6840 15.28363795183961"
      },
      "geometry": {
        "type": "Point",
        "coordinates": [
          54.55576921448942,
          31.158819751645577
        ]
      }
    },
    {
      "type": "Feature",
      "properties": {
        "norad_id": 28376,
        "name": "AURA",
        "group": "resource",
        "lat": 50.63199535605028,
        "lon": -62.78819529143336,
        "alt_km": 684.624487262733,
        "timestamp": "2025-12-23T05:02:11.680063+00:00",
        "meta_object_name": "AURA",
        "meta_object_id": "2004-026A",
        "meta_epoch": "2025-12-22T20:35:01.113792",
        "meta_mean_motion": 14.60968353,
        "meta_eccentricity": 0.00013968,
        "meta_inclination": 98.32,
        "meta_ra_of_asc_node": 307.132,
        "meta_arg_of_pericenter": 91.9638,
        "meta_mean_anomaly": 268.1722,
        "meta_ephemeris_type": 0,
        "meta_classification_type": "U",
        "meta_norad_cat_id": 28376,
        "meta_element_set_no": 999,
        "meta_rev_at_epoch": 14046,
        "meta_bstar": 0.00019583281,
        "meta_mean_motion_dot": 9.12e-06,
        "meta_mean_motion_ddot": 0,
        "tle_line1": "1 28376U 04026A   25356.85765178  .00000912  00000+0  19583-3 0  9996",
        "tle_line2": "2 28376  98.3200 307.1320 0001396  91.9638 268.1722 14.60968353140469"
      },
      "geometry": {
        "type": "Point",
        "coordinates": [
          -62.78819529143336,
          50.63199535605028
        ]
      }
    },
    {
      "type": "Feature",
      "properties": {
        "norad_id": 28649,
        "name": "IRS-P5 (CARTOSAT-1)",
        "group": "resource",
        "lat": -66.15133625003203,
        "lon": 40.613307305347355,
        "alt_km": 604.0507749562576,
        "timestamp": "2025-12-23T05:02:11.680074+00:00",
        "meta_object_name": "IRS-P5 (CARTOSAT-1)",
        "meta_object_id": "2005-017A",
        "meta_epoch": "2025-12-22T19:40:14.057760",
        "meta_mean_motion": 14.90436364,
        "meta_eccentricity": 6.27e-05,
        "meta_inclination": 97.5483,
        "meta_ra_of_asc_node": 22.7855,
        "meta_arg_of_pericenter": 55.0541,
        "meta_mean_anomaly": 305.0736,
        "meta_ephemeris_type": 0,
        "meta_classification_type": "U",
        "meta_norad_cat_id": 28649,
        "meta_element_set_no": 999,
        "meta_rev_at_epoch": 11754,
        "meta_bstar": 0.00015078676,
        "meta_mean_motion_dot": 1.417e-05,
        "meta_mean_motion_ddot": 0,
        "tle_line1": "1 28649U 05017A   25356.81960715  .00001417  00000+0  15079-3 0  9997",
        "tle_line2": "2 28649  97.5483  22.7855 0000627  55.0541 305.0736 14.90436364117543"
      },
      "geometry": {
        "type": "Point",
        "coordinates": [
          40.613307305347355,
          -66.15133625003203
        ]
      }
    },
    {
      "type": "Feature",
      "properties": {
        "norad_id": 28893,
        "name": "SINAH 1",
        "group": "resource",
        "lat": 10.636372751411725,
        "lon": 124.23176656467228,
        "alt_km": 682.9204598418537,
        "timestamp": "2025-12-23T05:02:11.680085+00:00",
        "meta_object_name": "SINAH 1",
        "meta_object_id": "2005-043D",
        "meta_epoch": "2025-12-22T19:08:43.743264",
        "meta_mean_motion": 14.63972432,
        "meta_eccentricity": 0.00156902,
        "meta_inclination": 98.2609,
        "meta_ra_of_asc_node": 125.3821,
        "meta_arg_of_pericenter": 107.6503,
        "meta_mean_anomaly": 252.6414,
        "meta_ephemeris_type": 0,
        "meta_classification_type": "U",
        "meta_norad_cat_id": 28893,
        "meta_element_set_no": 999,
        "meta_rev_at_epoch": 7471,
        "meta_bstar": 8.1550649e-05,
        "meta_mean_motion_dot": 3.79e-06,
        "meta_mean_motion_ddot": 0,
        "tle_line1": "1 28893U 05043D   25356.79772851  .00000379  00000+0  81551-4 0  9991",
        "tle_line2": "2 28893  98.2609 125.3821 0015690 107.6503 252.6414 14.63972432 74715"
      },
      "geometry": {
        "type": "Point",
        "coordinates": [
          124.23176656467228,
          10.636372751411725
        ]
      }
    },
    {
      "type": "Feature",
      "properties": {
        "norad_id": 29079,
        "name": "EROS B",
        "group": "resource",
        "lat": 46.242553118080664,
        "lon": 106.56349186055964,
        "alt_km": 350.8255137100641,
        "timestamp": "2025-12-23T05:02:11.680096+00:00",
        "meta_object_name": "EROS B",
        "meta_object_id": "2006-014A",
        "meta_epoch": "2025-12-22T22:43:32.108160",
        "meta_mean_motion": 15.7147368,
        "meta_eccentricity": 0.00039707,
        "meta_inclination": 97.3464,
        "meta_ra_of_asc_node": 114.0304,
        "meta_arg_of_pericenter": 310.5432,
        "meta_mean_anomaly": 49.5485,
        "meta_ephemeris_type": 0,
        "meta_classification_type": "U",
        "meta_norad_cat_id": 29079,
        "meta_element_set_no": 999,
        "meta_rev_at_epoch": 9240,
        "meta_bstar": 0.0014111441,
        "meta_mean_motion_dot": 0.00183591,
        "meta_mean_motion_ddot": 0,
        "tle_line1": "1 29079U 06014A   25356.94689940  .00183591  00000+0  14111-2 0  9994",
        "tle_line2": "2 29079  97.3464 114.0304 0003970 310.5432  49.5485 15.71473680 92404"
      },
      "geometry": {
        "type": "Point",
        "coordinates": [
          106.56349186055964,
          46.242553118080664
        ]
      }
    },
    {
      "type": "Feature",
      "properties": {
        "norad_id": 29228,
        "name": "RESURS-DK 1",
        "group": "resource",
        "lat": -29.342518260011193,
        "lon": 62.92248441703652,
        "alt_km": 533.9076381728464,
        "timestamp": "2025-12-23T05:02:11.680106+00:00",
        "meta_object_name": "RESURS-DK 1",
        "meta_object_id": "2006-021A",
        "meta_epoch": "2025-12-22T11:42:44.959104",
        "meta_mean_motion": 15.1221149,
        "meta_eccentricity": 0.00068667,
        "meta_inclination": 69.9337,
        "meta_ra_of_asc_node": 76.645,
        "meta_arg_of_pericenter": 250.3556,
        "meta_mean_anomaly": 109.6869,
        "meta_ephemeris_type": 0,
        "meta_classification_type": "U",
        "meta_norad_cat_id": 29228,
        "meta_element_set_no": 999,
        "meta_rev_at_epoch": 7585,
        "meta_bstar": 0.00015666054,
        "meta_mean_motion_dot": 2.606e-05,
        "meta_mean_motion_ddot": 0,
        "tle_line1": "1 29228U 06021A   25356.48802036  .00002606  00000+0  15666-3 0  9994",
        "tle_line2": "2 29228  69.9337  76.6450 0006866 250.3556 109.6869 15.12211490 75852"
      },
      "geometry": {
        "type": "Point",
        "coordinates": [
          62.92248441703652,
          -29.342518260011193
        ]
      }
    }
  ]
}